[{"OBJECT_NAME":"CUBEBEL 2 (EU11S)","OBJECT_ID":"2023-091K","EPOCH":"2026-03-09T21:40:29.186112","MEAN_MOTION":15.26706784,"ECCENTRICITY":0.00118653,"INCLINATION":97.517,"RA_OF_ASC_NODE":131.3579,"ARG_OF_PERICENTER":105.889,"MEAN_ANOMALY":254.3657,"EPHEMERIS_TYPE":0,"CLASSIFICATION_TYPE":"U","NORAD_CAT_ID":57175,"ELEMENT_SET_NO":999,"REV_AT_EPOCH":14914,"BSTAR":0.00056688644,"MEAN_MOTION_DOT":0.00014859,"MEAN_MOTION_DDOT":0},{"OBJECT_NAME":"STARLINK-36506","OBJECT_ID":"2026-005L","EPOCH":"2026-03-09T11:03:20.861568","MEAN_MOTION":15.27599478,"ECCENTRICITY":0.00010431,"INCLINATION":42.9969,"RA_OF_ASC_NODE":239.0803,"ARG_OF_PERICENTER":258.6367,"MEAN_ANOMALY":101.4367,"EPHEMERIS_TYPE":0,"CLASSIFICATION_TYPE":"U","NORAD_CAT_ID":67414,"ELEMENT_SET_NO":999,"REV_AT_EPOCH":866,"BSTAR":0.0010330166,"MEAN_MOTION_DOT":0.0002829,"MEAN_MOTION_DDOT":0}]
